[{"name": "Tallinna Balti Jaam","city": "Tallinn","Address": "Toompuiestee 37, Tallinn","zip": 96001,"Description": "Pakiautomaat asub jaamahoone seina ääres (Go hotelli ja rahvusvaheliste rongide perrooni poolses küljes)"}, {"name": "Tallinna Järve Keskus","city": "Tallinn","Address": "Pärnu mnt 238, Tallinn","zip": 96016,"Description": "Pakiautomaat asub keskuse esiseinas, peasissekäigu vahetus läheduses"}, {"name": "Tallinna Kadaka Selver","city": "Tallinn","Address": "Kadaka tee 56a, Tallinn","zip": 96018,"Description": "pakiautomaat asub Selveri seina ääres Ehitajate tee poolses küljes"}, {"name": "Tallinna Kakumäe Selver","city": "Tallinn","Address": "Rannamõisa tee 6, Tallinn","zip": 96015,"Description": "Pakiautomaat asub Selveri esiküljel sissepääsu lähedal"}, {"name": "Tallinna Kristiine Keskus","city": "Tallinn","Address": "Endla 45, Tallinn","zip": 96007,"Description": "Pakiautomaat asub keskuse tagaküljel asuva peasissepääsu vahetus läheduses"}, {"name": "Tallinna Laagri Säästumarket","city": "Tallinn","Address": "Pärnu mnt 453e, Tallinn","zip": 96008,"Description": "Pakiautomaat asub kaupluse seina ääres parklas"}, {"name": "Tallinna Mustakivi keskus","city": "Tallinn","Address": "Mahtra 1, Tallinn","zip": 96010,"Description": "Pakiautomaat asub keskuse esiseina ääres (McDonalds drive-in vastas)"}, {"name": "Tallinna Nurmenuku kaubanduskeskus","city": "Tallinn","Address": "Ehitajate tee 107, Tallinn","zip": 96004,"Description": "Pakiautomaat asub keskuse Õismäe tee poolses küljes"}, {"name": "Tallinna Pelguranna Selver","city": "Tallinn","Address": "Sõle 51, Tallinn","zip": 96017,"Description": "Pakiautomaat asub Selveri parklapoolsel küljel"}, {"name": "Tallinna Pirita Selver","city": "Tallinn","Address": "Rummu tee 4, Tallinn","zip": 96012,"Description": "Pakiautomaat asub Selveri suure parkla küljel, kollase seina ääres"}, {"name": "Tallinna Rocca al Mare kaubanduskeskus","city": "Tallinn","Address": "Paldiski mnt 102, Tallinn","zip": 96005,"Description": "Pakiautomaat asub keskuse Prisma sissepääsu vahetus läheduses"}, {"name": "Tallinna Sikupilli Alexela","city": "Tallinn","Address": "Tartu mnt 87b, Tallinn","zip": 96009,"Description": "Pakiautomaat asub Prisma keskuse kõrval olevas Alexela tanklas"}, {"name": "Tallinna Sõpruse Rimi hüpermarket","city": "Tallinn","Address": "Sõpruse pst 174/ 176, Tallinn","zip": 96014,"Description": "Pakiautomaat asub Rimi peasissepääsu vahetus läheduses"}, {"name": "Tallinna Tehnikaülikool","city": "Tallinn","Address": "Akadeemia tee 5a, Tallinn","zip": 96003,"Description": "Pakiautomaat asub ülikooli hoonete juures,  Akadeemia tee 5a maja juures (lähedal bussipeatus) "}, {"name": "Tallinna Tondi Selver","city": "Tallinn","Address": "A.H.Tammsaare tee 62, Tallinn","zip": 96006,"Description": "Pakiautomaat asub Selveri seina ääres tanklapoolses küljes"}, {"name": "Tallinna Torupilli Selver","city": "Tallinn","Address": "Vesivärava 37, Tallinn","zip": 96038,"Description": "Pakiautomaat asub Selveri parklapoolsel küljel"}, {"name": "Tallinna Viru Keskus","city": "Tallinn","Address": "Viru väljak 4, Tallinn","zip": 96002,"Description": "Pakiautomaat asub A. Laikmaa poolse tänava pool keskuse seina ääres (bussiterminali sissepääsu vahetus läheduses)"}, {"name": "Haabneeme Viimsi Market","city": "Haabneeme","Address": "Randvere tee 9, Haabneeme","zip": 96013,"Description": "Pakiautomaat asub keskuse seina ääres, Rannamõisa tee poolses küljes"}, {"name": "Haapsalu Konsum","city": "Haapsalu","Address": "Tallnna mnt 1, Haapsalu","zip": 96033,"Description": "Pakiautomaat asub peasissekäigu vahetus läheduses"}, {"name": "Jõhvi Jewe kaubanduskeskus","city": "Jõhvi","Address": "Narva mnt 8, Jõhvi","zip": 96030,"Description": "pakiautomaat asub keskuses kõrval asuvas autobussiterminalis"}, {"name": "Kohtla-Järve Selver","city": "Kohtla- Järve","Address": "Järveküla tee 68, Kohtla- Järve","zip": 96036,"Description": "Pakiautomaat asub peasissekäigu kõrval"}, {"name": "Kuressaare Säästumarket","city": "Kuressaare","Address": "Mooni 2, Kuressaare","zip": 96034,"Description": "Pakiautomaat asub kaupluse sissepääsu vahetus läheduses"}, {"name": "Narva Astri keskus","city": "Narva","Address": "Tallinna mnt 41, Narva","zip": 96028,"Description": "Pakiautoimaat asub keskuse Tallinna mnt poolsel küljel, bussipeatuse vahetus läheduses"}, {"name": "Paide Selver","city": "Paide","Address": "Aiavilja tn 4, Paide","zip": 96037,"Description": "Pakiautomaat asub peasissekäigu vahetus läheduses"}, {"name": "Pärnu Maxima","city": "Pärnu","Address": "Riia mnt 131, Pärnu","zip": 96027,"Description": "Pakiautomaat asub Maxima sissepääsu kõrval"}, {"name": "Pärnu Ülejõe Säästumarket","city": "Pärnu","Address": "J. V. Jannseni 3, Pärnu","zip": 96026,"Description": "Pakiautomaat asub keskuse J. V. Jannseni tänava poolsel küljel"}, {"name": "Rakvere Grossi pood","city": "Rakvere","Address": "Laada 16, Rakvere","zip": 96031,"Description": "Pakiautomaat asub poe promenaadi poolses küljes"}, {"name": "Tartu Eeden","city": "Tartu","Address": "Kalda tee 1c, Tartu","zip": 96020,"Description": "Pakiautomaat asub keskuse seina ääres Swedbanki kontori sissepääsu juures"}, {"name": "Tartu Lõunakeskus","city": "Tartu","Address": "Ringtee 75, Tartu","zip": 96019,"Description": "Pakiautomaat asub keskuse seina ääres teise sissepääsu kõrval seina ääres"}, {"name": "Tartu Sõbrakeskus","city": "Tartu","Address": "Võru tn 55f, Tartu","zip": 96021,"Description": "Pakiautomaat asub Maxima peasissekäigu vahetus läheduses"}, {"name": "Tartu Ujula Konsum","city": "Tartu","Address": "Ujula 2, Tartu","zip": 96022,"Description": "Pakiautomaat asub hoone ujula tänava poolses küljes seina ääres"}, {"name": "Viljandi bussijaam","city": "Viljandi","Address": "Ilmarise 1, Viljandi","zip": 96032,"Description": "Pakiautomaat asub jaamahoone seina ääres"}, {"name": "Võru Maksimarket","city": "Võru","Address": "Jüri 83, Võru","zip": 96035,"Description": "Pakiautomaat asub keskuse Luha tänava poolse seina ääres"}, {"name": "Lasnamäe Centrum","city": "Tallinn","Address": "Mustakivi 13, Tallinn","zip": 96041,"Description": null}, {"name": "Tartu Tasku keskus","city": "Tartu","Address": "Turu 2, Tartu","zip": 96039,"Description": null}, {"name": "Pärnu Kaubamajakas","city": "Pärnu","Address": "Papiniidu 8/10, Pärnu","zip": 96040,"Description": null}, {"name": "Rapla Maxima","city": "Rapla","Address": "Tallinna mnt 50A, Rapla","zip": 96043,"Description": null}, {"name": "Valga Maxima","city": "Valga","Address": "Jaama puiestee 2B, Valga","zip": 96042,"Description": null}]
